GLOBALSTAR M068         
1 32266U 07048D   24329.79753927 -.00000066  00000+0  21240-3 0  9991
2 32266  51.9868 205.2985 0001972  61.0431  47.8734 12.62809134792022
GLOBALSTAR M079         
1 37188U 10054A   24329.58499407 -.00000091  00000+0  73701-4 0  9995
2 37188  52.0059  42.6281 0000657 146.7369   2.3272 12.62267415650617
GLOBALSTAR M074         
1 37189U 10054B   24329.52775029 -.00000080  00000+0  13485-3 0  9997
2 37189  52.0038  42.1539 0000350 109.5086  20.9672 12.62259325651217
GLOBALSTAR M076         
1 37190U 10054C   24329.71555021 -.00000090  00000+0  74269-4 0  9997
2 37190  52.0051  41.7383 0000330 163.3214 338.6735 12.62273758651311
GLOBALSTAR M077         
1 37191U 10054D   24329.46626263 -.00000082  00000+0  12161-3 0  9990
2 37191  52.0092 359.2957 0000268  97.4538  51.2655 12.62267338651290
GLOBALSTAR M075         
1 37192U 10054E   24329.81356826 -.00000086  00000+0  98384-4 0  9991
2 37192  51.9949  83.8071 0000700 109.4940  59.6075 12.62269226650564
GLOBALSTAR M073         
1 37193U 10054F   24329.49598080 -.00000084  00000+0  10874-3 0  9991
2 37193  52.0081 358.4394 0000208 129.3587  35.8450 12.62272944651985
GLOBALSTAR M083         
1 37739U 11033A   24329.17987771 -.00000089  00000+0  84217-4 0  9997
2 37739  51.9866 308.4131 0000504  75.8518  32.2323 12.62268030620967
GLOBALSTAR M088         
1 37740U 11033B   24329.16535575 -.00000084  00000+0  10933-3 0  9997
2 37740  51.9721 214.1210 0000998  80.3470  82.4260 12.62265503616509
GLOBALSTAR M091         
1 37741U 11033C   24329.62637431 -.00000085  00000+0  10675-3 0  9997
2 37741  51.9970 175.9077 0001264  98.0069 299.3779 12.62270980617351
GLOBALSTAR M085         
1 37742U 11033D   24329.79402858 -.00000086  00000+0  98010-4 0  9990
2 37742  51.9841 126.6126 0001205 110.6675  30.1670 12.62269505618371
GLOBALSTAR M081         
1 37743U 11033E   24329.82427132 -.00000090  00000+0  78955-4 0  9998
2 37743  51.9935 129.1817 0000979 120.6507  37.6031 12.62273586618415
GLOBALSTAR M089         
1 37744U 11033F   24329.53501733 -.00000099  00000+0  26969-4 0  9994
2 37744  51.9930  84.3289 0000426 118.2372 344.0754 12.62272460618840
GLOBALSTAR M084         
1 38040U 11080A   24329.31882170 -.00000064  00000+0  22040-3 0  9996
2 38040  52.0018 312.1678 0000485  21.0192 118.7252 12.62271034596793
GLOBALSTAR M080         
1 38041U 11080B   24328.17513951 -.00000069  00000+0  19435-3 0  9997
2 38041  52.0071 317.1854 0000333 338.6778 120.8128 12.62268907596772
GLOBALSTAR M082         
1 38042U 11080C   24329.30180059 -.00000086  00000+0  10194-3 0  9995
2 38042  52.0079 269.1795 0001100  76.0287  46.0046 12.62269895597622
GLOBALSTAR M092         
1 38043U 11080D   24329.51094984 -.00000079  00000+0  13579-3 0  9992
2 38043  52.0106 358.9085 0000340  74.1917  38.8334 12.62269730596106
GLOBALSTAR M090         
1 38044U 11080E   24329.78366569 -.00000083  00000+0  11617-3 0  9999
2 38044  51.9886 261.7832 0000845  74.9685 318.3507 12.62271119597845
GLOBALSTAR M086         
1 38045U 11080F   24329.36071355 -.00000084  00000+0  11252-3 0  9996
2 38045  51.9900 263.6061 0000274 191.7678 319.1673 12.62270605597699
GLOBALSTAR M097         
1 39072U 13005A   24329.51271562 -.00000086  00000+0  10118-3 0  9997
2 39072  52.0018 177.4851 0001027  99.1745 260.9238 12.62267611544969
GLOBALSTAR M093         
1 39073U 13005B   24329.56506361 -.00000079  00000+0  13794-3 0  9996
2 39073  51.9779 170.9528 0001130 100.8303 259.2690 12.62276613544927
GLOBALSTAR M094         
1 39074U 13005C   24329.56522610 -.00000091  00000+0  73176-4 0  9997
2 39074  51.9959  85.1276 0000954 131.2101 228.8848 12.62265513546535
GLOBALSTAR M096         
1 39075U 13005D   24329.57840985 -.00000088  00000+0  87776-4 0  9994
2 39075  52.0048 133.4437 0001226 112.2046 247.8950 12.62264963545456
GLOBALSTAR M078         
1 39076U 13005E   24329.23478466 -.00000184  00000+0 -44504-3 0  9998
2 39076  51.9868 219.2769 0001796  81.4525 278.6545 12.62266782544033
GLOBALSTAR M095         
1 39077U 13005F   24329.02409641 -.00000077  00000+0  14746-3 0  9990
2 39077  51.9788 217.2202 0001439  91.1266 268.9765 12.62268615543862
GLOBALSTAR M087         
1 52888U 22064A   24329.30291397 -.00000075  00000+0  10801-3 0  9994
2 52888  51.9782  10.5752 0035220   1.3042 358.7942 13.30670593118945
